{
  "type": "FeatureCollection",
  "features": [
    {
      "type": "Feature",
      "properties": {
        "norad_id": 34944,
        "name": "COSMOS 2251 DEB",
        "group": "cosmos-2251-debris",
        "lat": -14.983283241728575,
        "lon": -152.65113434260016,
        "alt_km": 799.535810470974,
        "timestamp": "2025-12-23T22:42:33.381307+00:00",
        "meta_object_name": "COSMOS 2251 DEB",
        "meta_object_id": "1993-036ADX",
        "meta_epoch": "2025-12-17T02:06:11.847168",
        "meta_mean_motion": 14.14195665,
        "meta_eccentricity": 0.02198727,
        "meta_inclination": 73.7495,
        "meta_ra_of_asc_node": 224.195,
        "meta_arg_of_pericenter": 70.8954,
        "meta_mean_anomaly": 291.5851,
        "meta_ephemeris_type": 0,
        "meta_classification_type": "U",
        "meta_norad_cat_id": 34944,
        "meta_element_set_no": 999,
        "meta_rev_at_epoch": 64144,
        "meta_bstar": 0.00030334686,
        "meta_mean_motion_dot": 7.03e-06,
        "meta_mean_motion_ddot": 0,
        "tle_line1": "1 34944U 93036ADX 25351.08763712  .00000703  00000+0  30335-3 0  9991",
        "tle_line2": "2 34944  73.7495 224.1950 0219872  70.8954 291.5851 14.14195665641448"
      },
      "geometry": {
        "type": "Point",
        "coordinates": [
          -152.65113434260016,
          -14.983283241728575
        ]
      }
    },
    {
      "type": "Feature",
      "properties": {
        "norad_id": 34946,
        "name": "COSMOS 2251 DEB",
        "group": "cosmos-2251-debris",
        "lat": -32.427285351955064,
        "lon": 151.12976066478674,
        "alt_km": 708.9856250452431,
        "timestamp": "2025-12-23T22:42:33.381317+00:00",
        "meta_object_name": "COSMOS 2251 DEB",
        "meta_object_id": "1993-036ADZ",
        "meta_epoch": "2025-12-22T14:32:14.157024",
        "meta_mean_motion": 14.62044182,
        "meta_eccentricity": 0.00485038,
        "meta_inclination": 74.0239,
        "meta_ra_of_asc_node": 323.2107,
        "meta_arg_of_pericenter": 97.3579,
        "meta_mean_anomaly": 263.3103,
        "meta_ephemeris_type": 0,
        "meta_classification_type": "U",
        "meta_norad_cat_id": 34946,
        "meta_element_set_no": 999,
        "meta_rev_at_epoch": 88353,
        "meta_bstar": 0.00053383233,
        "meta_mean_motion_dot": 2.695e-05,
        "meta_mean_motion_ddot": 0,
        "tle_line1": "1 34946U 93036ADZ 25356.60571941  .00002695  00000+0  53383-3 0  9997",
        "tle_line2": "2 34946  74.0239 323.2107 0048503  97.3579 263.3103 14.62044182883538"
      },
      "geometry": {
        "type": "Point",
        "coordinates": [
          151.12976066478674,
          -32.427285351955064
        ]
      }
    },
    {
      "type": "Feature",
      "properties": {
        "norad_id": 34949,
        "name": "COSMOS 2251 DEB",
        "group": "cosmos-2251-debris",
        "lat": -52.29893987470119,
        "lon": -70.47093192527625,
        "alt_km": 598.5979452521342,
        "timestamp": "2025-12-23T22:42:33.381327+00:00",
        "meta_object_name": "COSMOS 2251 DEB",
        "meta_object_id": "1993-036AEC",
        "meta_epoch": "2025-12-22T14:41:39.809184",
        "meta_mean_motion": 14.74062836,
        "meta_eccentricity": 0.00801208,
        "meta_inclination": 74.0192,
        "meta_ra_of_asc_node": 90.3708,
        "meta_arg_of_pericenter": 233.64,
        "meta_mean_anomaly": 125.7362,
        "meta_ephemeris_type": 0,
        "meta_classification_type": "U",
        "meta_norad_cat_id": 34949,
        "meta_element_set_no": 999,
        "meta_rev_at_epoch": 88507,
        "meta_bstar": 0.0005139703,
        "meta_mean_motion_dot": 3.528e-05,
        "meta_mean_motion_ddot": 0,
        "tle_line1": "1 34949U 93036AEC 25356.61226631  .00003528  00000+0  51397-3 0  9993",
        "tle_line2": "2 34949  74.0192  90.3708 0080120 233.6400 125.7362 14.74062836885075"
      },
      "geometry": {
        "type": "Point",
        "coordinates": [
          -70.47093192527625,
          -52.29893987470119
        ]
      }
    },
    {
      "type": "Feature",
      "properties": {
        "norad_id": 34953,
        "name": "COSMOS 2251 DEB",
        "group": "cosmos-2251-debris",
        "lat": 7.340114647073466,
        "lon": 7.975515230570728,
        "alt_km": 625.4806875820568,
        "timestamp": "2025-12-23T22:42:33.381338+00:00",
        "meta_object_name": "COSMOS 2251 DEB",
        "meta_object_id": "1993-036AEG",
        "meta_epoch": "2025-12-22T11:23:59.510976",
        "meta_mean_motion": 14.69037291,
        "meta_eccentricity": 0.00586655,
        "meta_inclination": 74.0926,
        "meta_ra_of_asc_node": 8.7074,
        "meta_arg_of_pericenter": 357.9474,
        "meta_mean_anomaly": 152.224,
        "meta_ephemeris_type": 0,
        "meta_classification_type": "U",
        "meta_norad_cat_id": 34953,
        "meta_element_set_no": 999,
        "meta_rev_at_epoch": 88271,
        "meta_bstar": 0.0008576982,
        "meta_mean_motion_dot": 5.138e-05,
        "meta_mean_motion_ddot": 0,
        "tle_line1": "1 34953U 93036AEG 25356.47499434  .00005138  00000+0  85770-3 0  9996",
        "tle_line2": "2 34953  74.0926   8.7074 0058665 357.9474 152.2240 14.69037291882713"
      },
      "geometry": {
        "type": "Point",
        "coordinates": [
          7.975515230570728,
          7.340114647073466
        ]
      }
    },
    {
      "type": "Feature",
      "properties": {
        "norad_id": 34955,
        "name": "COSMOS 2251 DEB",
        "group": "cosmos-2251-debris",
        "lat": -22.64444712720738,
        "lon": -143.14977276156307,
        "alt_km": 532.005688038269,
        "timestamp": "2025-12-23T22:42:33.381348+00:00",
        "meta_object_name": "COSMOS 2251 DEB",
        "meta_object_id": "1993-036AEJ",
        "meta_epoch": "2025-12-20T00:24:58.893120",
        "meta_mean_motion": 15.00658938,
        "meta_eccentricity": 0.00779123,
        "meta_inclination": 74.0366,
        "meta_ra_of_asc_node": 231.6989,
        "meta_arg_of_pericenter": 299.5962,
        "meta_mean_anomaly": 59.7477,
        "meta_ephemeris_type": 0,
        "meta_classification_type": "U",
        "meta_norad_cat_id": 34955,
        "meta_element_set_no": 999,
        "meta_rev_at_epoch": 90143,
        "meta_bstar": 0.00046776562,
        "meta_mean_motion_dot": 6.274e-05,
        "meta_mean_motion_ddot": 0,
        "tle_line1": "1 34955U 93036AEJ 25354.01734830  .00006274  00000+0  46777-3 0  9994",
        "tle_line2": "2 34955  74.0366 231.6989 0077912 299.5962  59.7477 15.00658938901431"
      },
      "geometry": {
        "type": "Point",
        "coordinates": [
          -143.14977276156307,
          -22.64444712720738
        ]
      }
    },
    {
      "type": "Feature",
      "properties": {
        "norad_id": 34962,
        "name": "COSMOS 2251 DEB",
        "group": "cosmos-2251-debris",
        "lat": 67.87128767460679,
        "lon": -52.34305004657383,
        "alt_km": 743.4366163130389,
        "timestamp": "2025-12-23T22:42:33.381358+00:00",
        "meta_object_name": "COSMOS 2251 DEB",
        "meta_object_id": "1993-036AER",
        "meta_epoch": "2025-12-22T13:01:35.530176",
        "meta_mean_motion": 14.46544161,
        "meta_eccentricity": 0.00189039,
        "meta_inclination": 74.0281,
        "meta_ra_of_asc_node": 175.0517,
        "meta_arg_of_pericenter": 287.2321,
        "meta_mean_anomaly": 72.6768,
        "meta_ephemeris_type": 0,
        "meta_classification_type": "U",
        "meta_norad_cat_id": 34962,
        "meta_element_set_no": 999,
        "meta_rev_at_epoch": 87720,
        "meta_bstar": 0.00036229259,
        "meta_mean_motion_dot": 1.281e-05,
        "meta_mean_motion_ddot": 0,
        "tle_line1": "1 34962U 93036AER 25356.54277234  .00001281  00000+0  36229-3 0  9996",
        "tle_line2": "2 34962  74.0281 175.0517 0018903 287.2321  72.6768 14.46544161877206"
      },
      "geometry": {
        "type": "Point",
        "coordinates": [
          -52.34305004657383,
          67.87128767460679
        ]
      }
    },
    {
      "type": "Feature",
      "properties": {
        "norad_id": 34963,
        "name": "COSMOS 2251 DEB",
        "group": "cosmos-2251-debris",
        "lat": -8.44837633451641,
        "lon": -155.75050970616965,
        "alt_km": 698.8708643968239,
        "timestamp": "2025-12-23T22:42:33.381368+00:00",
        "meta_object_name": "COSMOS 2251 DEB",
        "meta_object_id": "1993-036AES",
        "meta_epoch": "2025-12-22T19:22:05.292480",
        "meta_mean_motion": 14.51171721,
        "meta_eccentricity": 0.00421225,
        "meta_inclination": 74.1708,
        "meta_ra_of_asc_node": 23.9592,
        "meta_arg_of_pericenter": 218.4859,
        "meta_mean_anomaly": 141.3297,
        "meta_ephemeris_type": 0,
        "meta_classification_type": "U",
        "meta_norad_cat_id": 34963,
        "meta_element_set_no": 999,
        "meta_rev_at_epoch": 86947,
        "meta_bstar": 0.0011861563,
        "meta_mean_motion_dot": 4.738e-05,
        "meta_mean_motion_ddot": 0,
        "tle_line1": "1 34963U 93036AES 25356.80700570  .00004738  00000+0  11862-2 0  9995",
        "tle_line2": "2 34963  74.1708  23.9592 0042122 218.4859 141.3297 14.51171721869473"
      },
      "geometry": {
        "type": "Point",
        "coordinates": [
          -155.75050970616965,
          -8.44837633451641
        ]
      }
    }
  ]
}